ONEWEB-0365             
1 49291U 21090N   26168.41415796  .00000077  00000+0  16041-3 0  9995
2 49291  87.9177 304.9211 0001808 101.1626 258.9710 13.19724707226452
ONEWEB-0366             
1 49292U 21090P   26168.35977042 -.00000104  00000+0 -31401-3 0  9996
2 49292  87.8965 289.6720 0001954 100.4070 259.7280 13.14502858227580
ONEWEB-0367             
1 49293U 21090Q   26168.31468470  .00000153  00000+0  34441-3 0  9992
2 49293  87.9196 274.4148 0001918 105.6601 254.4744 13.20771827229840
ONEWEB-0368             
1 49294U 21090R   26167.83403407 -.00000022  00000+0 -87222-4 0  9991
2 49294  87.9183 274.5212 0001415  84.1734 275.9560 13.20770287230935
ONEWEB-0369             
1 49295U 21090S   26168.40942209  .00000140  00000+0  31784-3 0  9994
2 49295  87.9169 304.9297 0001795  98.4733 261.6603 13.19725219226443
ONEWEB-0370             
1 49296U 21090T   26168.32393257  .00000101  00000+0  21594-3 0  9994
2 49296  87.9197 274.4127 0002216 105.3556 254.7822 13.20770613229885
ONEWEB-0371             
1 49297U 21090U   26168.34149740  .00000046  00000+0  83781-4 0  9998
2 49297  87.9176 304.9355 0001875 102.4867 257.6476 13.19724298226473
ONEWEB-0372             
1 49298U 21090V   26168.31368995  .00000129  00000+0  28617-3 0  9999
2 49298  87.9195 274.4165 0001957 101.5231 258.6122 13.20771729229858
ONEWEB-0373             
1 49299U 21090W   26168.33908819  .00000060  00000+0  11548-3 0  9996
2 49299  87.9192 274.4117 0002081 100.1617 259.9751 13.20771510231049
ONEWEB-0374             
1 49300U 21090X   26168.34708530  .00000089  00000+0  20435-3 0  9994
2 49300  87.8969 289.6653 0002141  84.6612 275.4761 13.14503043227589
ONEWEB-0375             
1 49301U 21090Y   26168.32730814  .00000213  00000+0  49196-3 0  9997
2 49301  87.9195 274.4057 0002289  87.3176 272.8219 13.20772032230542
ONEWEB-0376             
1 49302U 21090Z   26168.33991701  .00000101  00000+0  22084-3 0  9996
2 49302  87.9176 304.9358 0001708 102.1150 258.0175 13.19725145226473
ONEWEB-0377             
1 49303U 21090AA  26168.31397355 -.00001597  00000+0 -39594-2 0  9995
2 49303  87.9173 274.4126 0002395  96.6194 263.5212 13.20775087230530
ONEWEB-0378             
1 49304U 21090AB  26168.33417216  .00000114  00000+0  24815-3 0  9990
2 49304  87.9191 274.4113 0001977  96.2386 263.8973 13.20770512229804
ONEWEB-0379             
1 49305U 21090AC  26168.34232459  .00000176  00000+0  44020-3 0  9994
2 49305  87.8967 289.6770 0001897  96.5760 263.5586 13.14502941227584
ONEWEB-0380             
1 49306U 21090AD  26168.33676746  .00000122  00000+0  27211-3 0  9999
2 49306  87.9173 304.9416 0002062  97.1193 263.0175 13.19725020226448
ONEWEB-0381             
1 49307U 21090AE  26168.31047083  .00000139  00000+0  30998-3 0  9998
2 49307  87.9196 274.4157 0002072  92.9799 267.1571 13.20772532229847
ONEWEB-0382             
1 49308U 21090AF  26168.29699266  .00000020  00000+0  17580-4 0  9994
2 49308  87.9193 274.4125 0001977  91.7810 268.3550 13.20770309229833
ONEWEB-0383             
1 49309U 21090AG  26168.33597241  .00000256  00000+0  65725-3 0  9994
2 49309  87.8970 289.6696 0001830  95.6201 264.5138 13.14501317227610
ONEWEB-0384             
1 49310U 21090AH  26168.36138839 -.00000018  00000+0 -75974-4 0  9999
2 49310  87.9199 274.4435 0001943  87.0074 273.1281 13.20812390229853
ONEWEB-0385             
1 49311U 21090AJ  26167.98723991 -.00000013  00000+0 -63018-4 0  9997
2 49311  87.9193 274.4797 0001999  94.5361 265.6001 13.20773160229770
ONEWEB-0386             
1 49312U 21090AK  26168.30710481  .00000142  00000+0  31815-3 0  9995
2 49312  87.9199 274.4069 0001928  93.0836 267.0518 13.20772286229836
ONEWEB-0387             
1 49313U 21090AL  26168.29195114  .00000060  00000+0  11449-3 0  9994
2 49313  87.9185 274.4320 0002315  95.5909 264.5488 13.20772764229830
ONEWEB-0388             
1 49314U 21090AM  26168.40784553  .00000121  00000+0  26923-3 0  9990
2 49314  87.9169 304.9253 0001883  94.6678 265.4669 13.19725055226443
ONEWEB-0389             
1 50469U 21132A   26168.50246256 -.00000014  00000+0 -69664-4 0  9997
2 50469  87.9130   5.8054 0002155  81.8916 278.2460 13.17648749218125
ONEWEB-0390             
1 50470U 21132B   26168.50415002  .00000004  00000+0 -23106-4 0  9995
2 50470  87.9131   5.8059 0001998  93.9194 266.2166 13.17648679218121
ONEWEB-0391             
1 50471U 21132C   26168.50583846  .00000006  00000+0 -17698-4 0  9999
2 50471  87.9132   5.8153 0002686  84.6408 275.5030 13.17648494218126
ONEWEB-0392             
1 50472U 21132D   26168.53621983 -.00000009  00000+0 -56959-4 0  9995
2 50472  87.9141   5.7776 0002203  82.8987 277.2395 13.17648947218164
ONEWEB-0393             
1 50473U 21132E   26168.51174227 -.00000004  00000+0 -43727-4 0  9992
2 50473  87.9131   5.7996 0002009  84.9644 275.1717 13.17649522218159
ONEWEB-0394             
1 50474U 21132F   26168.47750389  .00000063  00000+0  12748-3 0  9998
2 50474  87.9171 335.3839 0001833  87.7684 272.3658 13.18688414221635
